satname,norad_id,inclination_deg,eccentricity,mean_motion_rev_per_day,perigee_km,apogee_km,l1,l2
STARLINK-1555,46032,53.0573,0.0001575,15.06400445,546.1194518946386,548.3009362607727,1 46032U 20055F   26051.70355426 -.00000141  00000+0  94259-5 0  9993,2 46032  53.0573 202.8663 0001575 124.0421 236.0718 15.06400445306330
STARLINK-1556,46033,53.055,0.0001378,15.06398429,546.2620591364202,548.170686525973,1 46033U 20055G   26051.68512081  .00000127  00000+0  27397-4 0  9994,2 46033  53.0550 202.9517 0001378 109.2953 250.8185 15.06398429306308
STARLINK-1557,46034,53.0562,0.0001215,15.06396681,546.38029912821,548.0631612996522,1 46034U 20055H   26051.68880748  .00000368  00000+0  43569-4 0  9999,2 46034  53.0562 202.9384 0001215  85.0845 275.0283 15.06396681306301
STARLINK-1558,46035,53.0564,0.0001155,15.06394739,546.4278025716876,548.0275618132746,1 46035U 20055J   26051.69617593  .00002397  00000+0  17977-3 0  9994,2 46035  53.0564 202.9105 0001155  90.3557 269.7564 15.06394739306334
STARLINK-1560,46036,53.0546,9.49e-05,15.06393296,546.574887280879,547.8893223369705,1 46036U 20055K   26051.68143820 -.00000817  00000+0 -36005-4 0  9992,2 46036  53.0546 202.9714 0000949  95.8986 264.2111 15.06393296306332
STARLINK-1567,46038,53.0557,0.0001467,15.06381527,546.2522186620035,548.2841325405243,1 46038U 20055M   26051.69251211 -.00000860  00000+0 -38862-4 0  9990,2 46038  53.0557 202.9210 0001467  87.7635 272.3522 15.06381527306323
STARLINK-1569,46039,53.0558,0.0001426,15.06394478,546.2409250069113,548.216039242413,1 46039U 20055N   26051.69986703 -.00000706  00000+0 -28517-4 0  9997,2 46039  53.0558 202.8872 0001426  95.5684 264.5468 15.06394478306325
STARLINK-1582,46043,53.0564,0.0001357,15.06404153,546.2590615485815,548.1385976927404,1 46043U 20055S   26051.64090304  .00002216  00000+0  16760-3 0  9992,2 46043  53.0564 203.1524 0001357  85.2335 274.8809 15.06404153306311
STARLINK-1591,46045,53.056,0.0001227,15.063948,546.3777530116195,548.0772374587505,1 46045U 20055U   26051.73304706  .00001708  00000+0  13356-3 0  9991,2 46045  53.0560 202.7403 0001227  86.5017 273.6112 15.06394800306318
STARLINK-1524,46047,53.1154,0.0001126,15.20609049,503.22740405970853,504.77726183748837,1 46047U 20055W   26051.91668981  .01298084  00000+0  54016-1 0  9993,2 46047  53.1154 191.4923 0001126  61.8341 343.4094 15.20609049  5631
STARLINK-1527,46048,53.1106,5.73e-05,15.19492428,506.97900683665466,507.76808634529425,1 46048U 20055X   26051.91668981  .01486156  00000+0  63121-1 0  9990,2 46048  53.1106 191.6015 0000573  57.0744 307.6441 15.19492428  5730
STARLINK-1540,46051,53.1142,7.67e-05,15.20271126,504.49418950434665,505.55006611455246,1 46051U 20055AA  26051.91668981  .01162631  00000+0  48641-1 0  9993,2 46051  53.1142 191.4879 0000767 137.1588 110.9182 15.20271126  5730
STARLINK-1541,46052,53.1096,6.21e-05,15.19565841,506.7242006487759,507.5793535148896,1 46052U 20055AB  26051.91668981  .00085824  00000+0  39533-2 0  9992,2 46052  53.1096 191.3947 0000621  72.2501 307.5176 15.19565841  5732
STARLINK-1543,46053,53.1108,9.97e-05,15.19439384,506.84729418353345,508.22029694016965,1 46053U 20055AC  26051.91668981  .01159414  00000+0  49700-1 0  9997,2 46053  53.1108 191.5178 0000997  99.1962 192.4060 15.19439384  5487
STARLINK-1548,46054,53.1103,0.0001318,15.19853199,505.37651730579546,507.1912506508115,1 46054U 20055AD  26051.91668981  .00093873  00000+0  42820-2 0  9990,2 46054  53.1103 191.4981 0001318 125.6893 137.3761 15.19853199  5738
STARLINK-1554,46055,53.1052,4.13e-05,15.18582998,509.83779282154137,510.4067630378986,1 46055U 20055AE  26051.91668981  .00089483  00000+0  42378-2 0  9991,2 46055  53.1052 191.5213 0000413  67.7154 262.0010 15.18582998  5730
STARLINK-1564,46058,53.1101,0.0001211,15.19824595,505.53654913306946,507.20397679215966,1 46058U 20055AH  26051.91668981  .00088783  00000+0  40569-2 0  9996,2 46058  53.1101 191.9772 0001211 131.2117 142.6489 15.19824595  5731
STARLINK-1570,46059,53.1107,0.000156,15.19796154,505.3821558706204,507.53014893417094,1 46059U 20055AJ  26051.91668981  .01461222  00000+0  61624-1 0  9995,2 46059  53.1107 191.5953 0001560  58.0661  11.2317 15.19796154  5732
STARLINK-1572,46060,53.1038,0.0001596,15.18470353,509.3635152758825,511.56235637539794,1 46060U 20055AK  26051.91668981  .00094626  00000+0  44918-2 0  9994,2 46060  53.1038 191.5748 0001596  66.4457  34.2510 15.18470353  5777
STARLINK-1573,46061,53.1149,0.0001425,15.20422725,503.58379579157827,505.5453657420967,1 46061U 20055AL  26051.91668981  .01416278  00000+0  58820-1 0  9993,2 46061  53.1149 191.5897 0001425  89.0186  44.4047 15.20422725  5778
STARLINK-1577,46063,53.116,0.0001249,15.20660322,502.98807276753905,504.7071925287755,1 46063U 20055AN  26051.91668981  .01427332  00000+0  58830-1 0  9999,2 46063  53.1160 191.5368 0001249  53.0880 307.5887 15.20660322  5730
STARLINK-1583,46064,53.1154,0.0001275,15.20540603,503.3313618777793,505.0863600723278,1 46064U 20055AP  26051.91668981  .01442988  00000+0  59624-1 0  9996,2 46064  53.1154 191.5534 0001275 110.1981  62.1665 15.20540603  5721
STARLINK-1525,46066,53.0552,0.0001289,15.06409861,546.2886620249337,548.0740090918407,1 46066U 20055AR  26051.65471715  .00003005  00000+0  22051-3 0  9994,2 46066  53.0552 173.0898 0001289  68.0132 292.0993 15.06409861306733
STARLINK-1536,46070,53.0563,0.0001388,15.06397756,546.2571961491749,548.179674818065,1 46070U 20055AV  26051.56624852 -.00000228  00000+0  36082-5 0  9997,2 46070  53.0563 173.4838 0001388 102.0243 258.0902 15.06397756306731
STARLINK-1542,46073,53.0562,0.0001267,15.06394069,546.3522916932889,548.1071796241049,1 46073U 20055AY  26051.55887967 -.00000314  00000+0 -21756-5 0  9996,2 46073  53.0562 173.5194 0001267 110.7522 249.3603 15.06394069306725
STARLINK-1549,46074,53.0557,0.0001162,15.06414555,546.3622289998493,547.97166963767,1 46074U 20055AZ  26050.81430720  .00001869  00000+0  14429-3 0  9997,2 46074  53.0557 176.8632 0001162  91.7335 268.3787 15.06414555306601
STARLINK-1551,46075,53.0559,0.0001366,15.06382838,546.3181476977588,548.210167293988,1 46075U 20055BA  26051.56993798 -.00000437  00000+0 -10460-4 0  9994,2 46075  53.0559 173.4694 0001366  98.0552 262.0592 15.06382838306728
STARLINK-1552,46076,53.0562,0.0001125,15.0642207,546.3648232895575,547.9230114959701,1 46076U 20055BB  26051.52938858 -.00005650  00000+0 -36050-3 0  9991,2 46076  53.0562 173.6545 0001125 103.5332 256.5782 15.06422070306701
